SPACEBEE-102            
1 48886U 21059H   23048.83444456  .00028317  00000+0  12127-2 0  9991
2 48886  97.5771 183.5339 0007466 330.4883  29.5931 15.22724559 91164
SPACEBEENZ-9            
1 48887U 21059J   23048.62285798  .00060049  00000+0  20415-2 0  9998
2 48887  97.5713 184.8748 0007805 318.2833  41.7812 15.30208345 91247
SPACEBEE-103            
1 48888U 21059K   23049.41571211  .00027233  00000+0  11464-2 0  9997
2 48888  97.5784 184.3137 0007957 325.6913  34.3809 15.23312208 91264
SPACEBEENZ-7            
1 48889U 21059L   23048.88755582  .00053825  00000+0  18154-2 0  9992
2 48889  97.5731 185.4492 0008446 317.8354  42.2236 15.30493415 91292
SPACEBEE-104            
1 48890U 21059M   23049.36628321  .00027848  00000+0  11663-2 0  9992
2 48890  97.5776 184.1832 0007983 328.9945  31.0819 15.23481302 91254
SPACEBEENZ-8            
1 48891U 21059N   23048.84751013  .00054502  00000+0  18587-2 0  9999
2 48891  97.5735 185.3538 0008300 318.1926  41.8679 15.30131536 91285
SPACEBEE-106            
1 48893U 21059Q   23049.36962007  .00025517  00000+0  10852-2 0  9997
2 48893  97.5796 184.3618 0008422 328.9098  31.1639 15.22976256 91258
SPACEBEE-107            
1 48894U 21059R   23048.85980436  .00030804  00000+0  12736-2 0  9995
2 48894  97.5797 184.1313 0008278 327.9655  32.1078 15.23891338 91196
SPACEBEE-108            
1 48895U 21059S   23048.84047899  .00028677  00000+0  12183-2 0  9993
2 48895  97.5790 183.8071 0008501 330.2104  29.8647 15.22986918 91173
SPACEBEE-105            
1 48896U 21059T   23048.86966179  .00029181  00000+0  12267-2 0  9991
2 48896  97.5775 183.6166 0008199 321.8263  38.2392 15.23342481 91178
SPACEBEE-109            
1 48897U 21059U   23049.35500702  .00027247  00000+0  11348-2 0  9993
2 48897  97.5801 184.5107 0008526 326.0725  33.9965 15.23670143 91265
SPACEBEE-110            
1 48899U 21059W   23049.32622785  .00028538  00000+0  11795-2 0  9998
2 48899  97.5793 184.7424 0008767 324.2462  35.8187 15.23916923 91273
SPACEBEE-111            
1 48904U 21059AB  23049.32588774  .00029056  00000+0  11767-2 0  9999
2 48904  97.5808 185.1028 0009403 322.9943  37.0645 15.24593112 91296
SPACEBEE-92             
1 48932U 21059BF  23049.35418735  .00356839  00000+0  34405-2 0  9998
2 48932  97.5495 191.8917 0014736 293.1694  66.8012 15.65267055 91801
SPACEBEE-89             
1 48933U 21059BG  23049.38048475  .00806127  00000+0  42679-2 0  9994
2 48933  97.5446 192.8958 0015182 295.8713  64.0987 15.78327871 91876
SPACEBEE-96             
1 48934U 21059BH  23048.91560620  .00307089  00000+0  37147-2 0  9991
2 48934  97.5522 190.8180 0016295 297.2008  62.7587 15.59529942 91699
SPACEBEE-88             
1 48935U 21059BJ  23049.36862554  .01672750  14857-2  47630-2 0  9990
2 48935  97.5361 193.3124 0017782 302.5332  57.4223 15.93360799 91902
SPACEBEE-99             
1 48936U 21059BK  23048.66531358  .00221664  00000+0  34007-2 0  9997
2 48936  97.5552 189.9549 0014562 298.6920  61.2868 15.53406059 91610
SPACEBEE-94             
1 48937U 21059BL  23049.38038371  .00390680  00000+0  38318-2 0  9999
2 48937  97.5482 191.6716 0016830 296.0510  63.9016 15.64693447 91790
SPACEBEE-93             
1 48939U 21059BN  23049.34965527  .01112685  00000+0  49416-2 0  9998
2 48939  97.5435 192.7799 0019303 297.4355  62.4950 15.81393368 91860
SPACEBEE-91             
1 48940U 21059BP  23049.35771455  .00611994  00000+0  39373-2 0  9993
2 48940  97.5454 192.6288 0014634 295.3093  64.6654 15.74373035 91858
SPACEBEE-95             
1 48945U 21059BU  23049.32755522  .00331258  00000+0  34117-2 0  9995
2 48945  97.5516 191.8085 0013703 291.2451  68.7343 15.63683987 91798
SPACEBEE-97             
1 48946U 21059BV  23048.94275567  .00224343  00000+0  32114-2 0  9990
2 48946  97.5541 190.4811 0014075 298.4489  61.5346 15.55312500 91674
SPACEBEE-90             
1 48947U 21059BW  23049.36410048  .00768708  00000+0  43452-2 0  9998
2 48947  97.5437 192.7646 0016146 297.5019  62.4605 15.76921328 91866
SPACEBEE-98             
1 48949U 21059BY  23049.31404334  .00229132  00000+0  32573-2 0  9991
2 48949  97.5611 191.0229 0015018 294.7972  65.1719 15.55470365 91734
SPACEBEE-121            
1 52009U 22026B   23048.74603015  .00032340  00000+0  13706-2 0  9991
2 52009  97.5072  51.6229 0025790 135.6426 224.6882 15.22766246 51406
SPACEBEE-114            
1 52010U 22026C   23048.90474741  .00030935  00000+0  12971-2 0  9994
2 52010  97.5100  51.9677 0024959 136.2851 224.0368 15.23157578 51445
SPACEBEE-126            
1 52011U 22026D   23048.45077605  .00032591  00000+0  13670-2 0  9990
2 52011  97.5089  51.4380 0025481 135.1304 225.1999 15.23122680 51369
SPACEBEE-118            
1 52012U 22026E   23049.42230466  .00027460  00000+0  11378-2 0  9997
2 52012  97.5083  52.6277 0024354 136.0470 224.2709 15.23597888 51538
SPACEBEE-120            
1 52013U 22026F   23049.46499292  .00026053  00000+0  10879-2 0  9998
2 52013  97.5083  52.5321 0026492 130.2441 230.1119 15.23295571 51521
SPACEBEE-122            
1 52014U 22026G   23048.79544913  .00033156  00000+0  13778-2 0  9998
2 52014  97.5084  51.8960 0025197 134.2707 226.0603 15.23439632 51423
SPACEBEE-119            
1 52015U 22026H   23049.26669824  .00025793  00000+0  10922-2 0  9997
2 52015  97.5097  52.2322 0026036 134.2382 226.0998 15.22836660 51481
SPACEBEE-115            
1 52016U 22026J   23048.89014760  .00029385  00000+0  12378-2 0  9997
2 52016  97.5096  51.9826 0025502 134.9852 225.3457 15.23000357 51436
SPACEBEENZ-14           
1 52018U 22026L   23049.45727986  .00035620  00000+0  13752-2 0  9999
2 52018  97.5072  53.0199 0024837 130.5315 229.8092 15.25895778 51552
SPACEBEENZ-11           
1 52019U 22026M   23049.47606619  .00038820  00000+0  14699-2 0  9997
2 52019  97.5072  53.1415 0024572 129.5232 230.8183 15.26527201 51521
SPACEBEE-127            
1 52020U 22026N   23049.44213355  .00023789  00000+0  10100-2 0  9998
2 52020  97.5086  52.4210 0025685 133.1988 227.1400 15.22773398 51468
SPACEBEE-125            
1 52021U 22026P   23048.73374510  .00031172  00000+0  12853-2 0  9993
2 52021  97.5081  51.9510 0026949 134.8131 225.5303 15.23672533 51298
SPACEBEE-117            
1 52022U 22026Q   23049.42859248  .00025390  00000+0  10728-2 0  9991
2 52022  97.5095  52.4911 0025709 133.1629 227.1762 15.22922498 51386
SPACEBEE-116            
1 52023U 22026R   23048.74881290  .00031591  00000+0  13285-2 0  9999
2 52023  97.5095  51.8694 0025418 135.5772 224.7509 15.23042555 51289
SPACEBEE-113            
1 52024U 22026S   23048.79476694  .00032574  00000+0  13555-2 0  9995
2 52024  97.5092  51.9412 0027231 132.2715 228.0837 15.23346346 51299
SPACEBEE-112            
1 52025U 22026T   23049.43768373  .00030177  00000+0  12171-2 0  9996
2 52025  97.5086  52.7627 0025252 131.8535 228.4863 15.24462930 51401
SPACEBEENZ-13           
1 52026U 22026U   23048.46056257  .00043080  00000+0  16564-2 0  9997
2 52026  97.5069  52.0438 0024659 133.6380 226.6908 15.25992479 51186
SPACEBEE-123            
1 52027U 22026V   23048.46407715  .00032610  00000+0  13787-2 0  9998
2 52027  97.5083  51.4061 0025680 136.3165 224.0109 15.22849241 51140
SPACEBEENZ-12           
1 52028U 22026W   23048.45650831  .00040014  00000+0  15785-2 0  9994
2 52028  97.5102  51.9685 0025124 134.2474 226.0832 15.25144552 51267
SPACEBEE-124            
1 52029U 22026X   23048.47392419  .00032904  00000+0  13933-2 0  9994
2 52029  97.5083  51.3878 0025607 136.3190 224.0079 15.22796275 49864
SPACEBEE-136            
1 52164U 22033H   23049.17331614  .00043283  00000+0  12940-2 0  9999
2 52164  97.3576 132.6320 0007766 230.0058 130.0503 15.34417107 49185
SPACEBEE-138            
1 52166U 22033K   23049.19414766  .00044209  00000+0  13279-2 0  9998
2 52166  97.3602 132.6988 0008817 221.5943 138.4630 15.34254438 49182
SPACEBEE-130            
1 52176U 22033V   23049.49327858  .00047060  00000+0  13989-2 0  9993
2 52176  97.3594 133.0021 0006080 225.7165 134.3580 15.34588526 49219
SPACEBEE-139            
1 52177U 22033W   23049.48471280  .00043852  00000+0  13451-2 0  9991
2 52177  97.3610 132.7834 0008449 226.3323 133.7220 15.33594044 49193
SPACEBEE-129            
1 52179U 22033Y   23049.18103085  .00040519  00000+0  12591-2 0  9996
2 52179  97.3598 132.3673 0007391 230.2759 129.7833 15.33207191 49143
SPACEBEE-134            
1 52180U 22033Z   23048.78200250  .00048815  00000+0  15398-2 0  9990
2 52180  97.3584 131.8157 0007674 232.2648 127.7899 15.32681725 49096
SPACEBEE-131            
1 52181U 22033AA  23049.16276794  .00039019  00000+0  12130-2 0  9997
2 52181  97.3595 132.4019 0007479 230.8693 129.1885 15.33201578 49142
SPACEBEE-128            
1 52182U 22033AB  23049.17545116  .00041281  00000+0  12795-2 0  9997
2 52182  97.3624 132.4600 0007738 230.5978 129.4580 15.33281998 49142
SPACEBEE-133            
1 52183U 22033AC  23049.48309284  .00041142  00000+0  12745-2 0  9997
2 52183  97.3595 132.7407 0007501 228.8915 131.1680 15.33302005 49196
SPACEBEE-132            
1 52185U 22033AE  23049.47997185  .00044652  00000+0  13454-2 0  9998
2 52185  97.3600 132.9186 0007327 241.3206 118.7300 15.34165159 49198
SPACEBEE-137            
1 52186U 22033AF  23049.50173940  .00044711  00000+0  13859-2 0  9993
2 52186  97.3605 132.7277 0007609 229.1102 130.9482 15.33261968 49196
SPACEBEE-135            
1 52187U 22033AG  23049.47983279  .00044617  00000+0  13455-2 0  9991
2 52187  97.3612 132.9448 0007194 225.6232 134.4422 15.34138892 49206
SPACEBEE-143            
1 52394U 22047A   23048.80037633  .00024448  00000+0  11417-2 0  9992
2 52394  97.4317 133.8232 0007726  45.7956 314.3912 15.19782483 45512
SPACEBEENZ-15           
1 52395U 22047B   23049.19923994  .00032568  00000+0  14066-2 0  9995
2 52395  97.4307 134.6508 0007134  38.7335 321.4411 15.22406034 45605
SPACEBEENZ-16           
1 52396U 22047C   23049.20243773  .00031720  00000+0  13729-2 0  9992
2 52396  97.4308 134.6468 0007146  39.0722 321.1029 15.22339406 45609
